[{"OBJECT_NAME":"KUIPER-00272","OBJECT_ID":"2026-072R","EPOCH":"2026-04-16T06:19:50.633472","MEAN_MOTION":15.37417039,"ECCENTRICITY":0.00058277,"INCLINATION":51.8719,"RA_OF_ASC_NODE":116.3989,"ARG_OF_PERICENTER":138.5808,"MEAN_ANOMALY":221.5622,"EPHEMERIS_TYPE":0,"CLASSIFICATION_TYPE":"U","NORAD_CAT_ID":68588,"ELEMENT_SET_NO":999,"REV_AT_EPOCH":185,"BSTAR":0.00033411581,"MEAN_MOTION_DOT":0.00012081,"MEAN_MOTION_DDOT":0},{"OBJECT_NAME":"KUIPER-00285","OBJECT_ID":"2026-072S","EPOCH":"2026-04-16T06:20:58.917120","MEAN_MOTION":15.3732479,"ECCENTRICITY":0.00062788,"INCLINATION":51.8729,"RA_OF_ASC_NODE":116.4035,"ARG_OF_PERICENTER":144.9292,"MEAN_ANOMALY":215.211,"EPHEMERIS_TYPE":0,"CLASSIFICATION_TYPE":"U","NORAD_CAT_ID":68589,"ELEMENT_SET_NO":999,"REV_AT_EPOCH":185,"BSTAR":0.00032992048,"MEAN_MOTION_DOT":0.00011888,"MEAN_MOTION_DDOT":0},{"OBJECT_NAME":"KUIPER-00286","OBJECT_ID":"2026-072T","EPOCH":"2026-04-16T06:16:10.105248","MEAN_MOTION":15.37744145,"ECCENTRICITY":0.00042,"INCLINATION":51.8724,"RA_OF_ASC_NODE":116.3827,"ARG_OF_PERICENTER":126.6902,"MEAN_ANOMALY":233.4471,"EPHEMERIS_TYPE":0,"CLASSIFICATION_TYPE":"U","NORAD_CAT_ID":68590,"ELEMENT_SET_NO":999,"REV_AT_EPOCH":185,"BSTAR":0.00031090237,"MEAN_MOTION_DOT":0.00011334,"MEAN_MOTION_DDOT":0},{"OBJECT_NAME":"KUIPER-00289","OBJECT_ID":"2026-072U","EPOCH":"2026-04-16T06:35:50.047584","MEAN_MOTION":15.3600571,"ECCENTRICITY":0.0010712,"INCLINATION":51.8653,"RA_OF_ASC_NODE":116.4688,"ARG_OF_PERICENTER":161.6652,"MEAN_ANOMALY":198.4722,"EPHEMERIS_TYPE":0,"CLASSIFICATION_TYPE":"U","NORAD_CAT_ID":68591,"ELEMENT_SET_NO":999,"REV_AT_EPOCH":185,"BSTAR":0.00029799268,"MEAN_MOTION_DOT":0.00010251,"MEAN_MOTION_DDOT":0},{"OBJECT_NAME":"KUIPER-00290","OBJECT_ID":"2026-072V","EPOCH":"2026-04-16T06:35:01.188384","MEAN_MOTION":15.360291,"ECCENTRICITY":0.00109104,"INCLINATION":51.8638,"RA_OF_ASC_NODE":116.4643,"ARG_OF_PERICENTER":158.992,"MEAN_ANOMALY":201.1517,"EPHEMERIS_TYPE":0,"CLASSIFICATION_TYPE":"U","NORAD_CAT_ID":68592,"ELEMENT_SET_NO":999,"REV_AT_EPOCH":185,"BSTAR":0.00029274328,"MEAN_MOTION_DOT":0.00010072,"MEAN_MOTION_DDOT":0},{"OBJECT_NAME":"KUIPER-00293","OBJECT_ID":"2026-072W","EPOCH":"2026-04-16T06:38:55.360032","MEAN_MOTION":15.3573074,"ECCENTRICITY":0.00117783,"INCLINATION":51.8634,"RA_OF_ASC_NODE":116.4813,"ARG_OF_PERICENTER":164.7136,"MEAN_ANOMALY":195.4208,"EPHEMERIS_TYPE":0,"CLASSIFICATION_TYPE":"U","NORAD_CAT_ID":68593,"ELEMENT_SET_NO":999,"REV_AT_EPOCH":185,"BSTAR":0.00030189587,"MEAN_MOTION_DOT":0.00010301,"MEAN_MOTION_DDOT":0},{"OBJECT_NAME":"KUIPER-00294","OBJECT_ID":"2026-072X","EPOCH":"2026-04-16T06:32:37.455936","MEAN_MOTION":15.36273382,"ECCENTRICITY":0.00095478,"INCLINATION":51.8676,"RA_OF_ASC_NODE":116.4557,"ARG_OF_PERICENTER":158.7377,"MEAN_ANOMALY":201.4008,"EPHEMERIS_TYPE":0,"CLASSIFICATION_TYPE":"U","NORAD_CAT_ID":68594,"ELEMENT_SET_NO":999,"REV_AT_EPOCH":185,"BSTAR":0.00028560402,"MEAN_MOTION_DOT":9.892e-5,"MEAN_MOTION_DDOT":0},{"OBJECT_NAME":"KUIPER-00296","OBJECT_ID":"2026-072Y","EPOCH":"2026-04-16T06:28:26.709312","MEAN_MOTION":15.36663615,"ECCENTRICITY":0.00083988,"INCLINATION":51.8695,"RA_OF_ASC_NODE":116.4375,"ARG_OF_PERICENTER":152.3864,"MEAN_ANOMALY":207.757,"EPHEMERIS_TYPE":0,"CLASSIFICATION_TYPE":"U","NORAD_CAT_ID":68595,"ELEMENT_SET_NO":999,"REV_AT_EPOCH":185,"BSTAR":0.00028344727,"MEAN_MOTION_DOT":9.939e-5,"MEAN_MOTION_DDOT":0},{"OBJECT_NAME":"KUIPER-00297","OBJECT_ID":"2026-072Z","EPOCH":"2026-04-16T06:33:54.695808","MEAN_MOTION":15.36118647,"ECCENTRICITY":0.00098065,"INCLINATION":51.8624,"RA_OF_ASC_NODE":116.4586,"ARG_OF_PERICENTER":159.5425,"MEAN_ANOMALY":200.5955,"EPHEMERIS_TYPE":0,"CLASSIFICATION_TYPE":"U","NORAD_CAT_ID":68596,"ELEMENT_SET_NO":999,"REV_AT_EPOCH":185,"BSTAR":0.00028018868,"MEAN_MOTION_DOT":9.648e-5,"MEAN_MOTION_DDOT":0},{"OBJECT_NAME":"KUIPER-00300","OBJECT_ID":"2026-072AA","EPOCH":"2026-04-16T06:26:15.865152","MEAN_MOTION":15.36849697,"ECCENTRICITY":0.00079908,"INCLINATION":51.8668,"RA_OF_ASC_NODE":116.4272,"ARG_OF_PERICENTER":152.2344,"MEAN_ANOMALY":207.9071,"EPHEMERIS_TYPE":0,"CLASSIFICATION_TYPE":"U","NORAD_CAT_ID":68597,"ELEMENT_SET_NO":999,"REV_AT_EPOCH":185,"BSTAR":0.000298717,"MEAN_MOTION_DOT":0.00010561,"MEAN_MOTION_DDOT":0},{"OBJECT_NAME":"KUIPER-00301","OBJECT_ID":"2026-072AB","EPOCH":"2026-04-16T06:29:48.172416","MEAN_MOTION":15.36523304,"ECCENTRICITY":0.00086643,"INCLINATION":51.8648,"RA_OF_ASC_NODE":116.442,"ARG_OF_PERICENTER":155.6749,"MEAN_ANOMALY":204.4648,"EPHEMERIS_TYPE":0,"CLASSIFICATION_TYPE":"U","NORAD_CAT_ID":68598,"ELEMENT_SET_NO":999,"REV_AT_EPOCH":185,"BSTAR":0.00029775781,"MEAN_MOTION_DOT":0.00010414,"MEAN_MOTION_DDOT":0},{"OBJECT_NAME":"KUIPER-00304","OBJECT_ID":"2026-072AC","EPOCH":"2026-04-16T06:30:47.563776","MEAN_MOTION":15.36431199,"ECCENTRICITY":0.00093167,"INCLINATION":51.8661,"RA_OF_ASC_NODE":116.4468,"ARG_OF_PERICENTER":155.3585,"MEAN_ANOMALY":204.7849,"EPHEMERIS_TYPE":0,"CLASSIFICATION_TYPE":"U","NORAD_CAT_ID":68599,"ELEMENT_SET_NO":999,"REV_AT_EPOCH":185,"BSTAR":0.00028783991,"MEAN_MOTION_DOT":0.00010024,"MEAN_MOTION_DDOT":0},{"OBJECT_NAME":"KUIPER-00317","OBJECT_ID":"2026-072AD","EPOCH":"2026-04-16T06:27:27.457920","MEAN_MOTION":15.36750316,"ECCENTRICITY":0.00084143,"INCLINATION":51.8682,"RA_OF_ASC_NODE":116.4328,"ARG_OF_PERICENTER":147.5291,"MEAN_ANOMALY":212.6215,"EPHEMERIS_TYPE":0,"CLASSIFICATION_TYPE":"U","NORAD_CAT_ID":68600,"ELEMENT_SET_NO":999,"REV_AT_EPOCH":185,"BSTAR":0.00028739221,"MEAN_MOTION_DOT":0.00010112,"MEAN_MOTION_DDOT":0},{"OBJECT_NAME":"KUIPER-00320","OBJECT_ID":"2026-072AE","EPOCH":"2026-04-16T06:36:33.545664","MEAN_MOTION":15.35940975,"ECCENTRICITY":0.00110781,"INCLINATION":51.86,"RA_OF_ASC_NODE":116.4681,"ARG_OF_PERICENTER":161.8418,"MEAN_ANOMALY":198.2966,"EPHEMERIS_TYPE":0,"CLASSIFICATION_TYPE":"U","NORAD_CAT_ID":68601,"ELEMENT_SET_NO":999,"REV_AT_EPOCH":185,"BSTAR":0.00030518402,"MEAN_MOTION_DOT":0.00010487,"MEAN_MOTION_DDOT":0},{"OBJECT_NAME":"STP-S29A OBJECT A","OBJECT_ID":"2026-074A","EPOCH":"2026-04-16T04:30:31.425408","MEAN_MOTION":15.23223284,"ECCENTRICITY":0.00163779,"INCLINATION":60.0194,"RA_OF_ASC_NODE":56.0249,"ARG_OF_PERICENTER":315.0055,"MEAN_ANOMALY":44.9697,"EPHEMERIS_TYPE":0,"CLASSIFICATION_TYPE":"U","NORAD_CAT_ID":68627,"ELEMENT_SET_NO":999,"REV_AT_EPOCH":133,"BSTAR":0.00023561415,"MEAN_MOTION_DOT":5.361e-5,"MEAN_MOTION_DDOT":0},{"OBJECT_NAME":"STP-S29A OBJECT B","OBJECT_ID":"2026-074B","EPOCH":"2026-04-16T06:04:07.998240","MEAN_MOTION":15.2332247,"ECCENTRICITY":0.00148091,"INCLINATION":60.0241,"RA_OF_ASC_NODE":55.7814,"ARG_OF_PERICENTER":318.1246,"MEAN_ANOMALY":41.87,"EPHEMERIS_TYPE":0,"CLASSIFICATION_TYPE":"U","NORAD_CAT_ID":68628,"ELEMENT_SET_NO":999,"REV_AT_EPOCH":133,"BSTAR":0.00018923783,"MEAN_MOTION_DOT":4.26e-5,"MEAN_MOTION_DDOT":0}]
