KUIPER-00272            
1 68588U 26072R   26106.26378048  .00012081  00000+0  33412-3 0  9992
2 68588  51.8719 116.3989 0005827 138.5808 221.5622 15.37417039  1854
KUIPER-00285            
1 68589U 26072S   26106.26457080  .00011888  00000+0  32992-3 0  9993
2 68589  51.8729 116.4035 0006278 144.9292 215.2110 15.37324790  1851
KUIPER-00286            
1 68590U 26072T   26106.26122807  .00011334  00000+0  31090-3 0  9995
2 68590  51.8724 116.3827 0004200 126.6902 233.4471 15.37744145  1856
KUIPER-00289            
1 68591U 26072U   26106.27488481  .00010251  00000+0  29799-3 0  9990
2 68591  51.8653 116.4688 0010712 161.6652 198.4722 15.36005710  1856
KUIPER-00290            
1 68592U 26072V   26106.27431931  .00010072  00000+0  29274-3 0  9998
2 68592  51.8638 116.4643 0010910 158.9920 201.1517 15.36029100  1851
KUIPER-00293            
1 68593U 26072W   26106.27702963  .00010301  00000+0  30190-3 0  9999
2 68593  51.8634 116.4813 0011778 164.7136 195.4208 15.35730740  1854
KUIPER-00294            
1 68594U 26072X   26106.27265574  .00009892  00000+0  28560-3 0  9993
2 68594  51.8676 116.4557 0009547 158.7377 201.4008 15.36273382  1858
KUIPER-00296            
1 68595U 26072Y   26106.26975358  .00009939  00000+0  28345-3 0  9994
2 68595  51.8695 116.4375 0008398 152.3864 207.7570 15.36663615  1857
KUIPER-00297            
1 68596U 26072Z   26106.27354972  .00009648  00000+0  28019-3 0  9994
2 68596  51.8624 116.4586 0009806 159.5425 200.5955 15.36118647  1859
KUIPER-00300            
1 68597U 26072AA  26106.26823918  .00010561  00000+0  29872-3 0  9999
2 68597  51.8668 116.4272 0007990 152.2344 207.9071 15.36849697  1858
KUIPER-00301            
1 68598U 26072AB  26106.27069644  .00010414  00000+0  29776-3 0  9999
2 68598  51.8648 116.4420 0008664 155.6749 204.4648 15.36523304  1853
KUIPER-00304            
1 68599U 26072AC  26106.27138384  .00010024  00000+0  28784-3 0  9993
2 68599  51.8661 116.4468 0009316 155.3585 204.7849 15.36431199  1857
KUIPER-00317            
1 68600U 26072AD  26106.26906780  .00010112  00000+0  28739-3 0  9996
2 68600  51.8682 116.4328 0008414 147.5291 212.6215 15.36750316  1853
KUIPER-00320            
1 68601U 26072AE  26106.27538826  .00010487  00000+0  30518-3 0  9993
2 68601  51.8600 116.4681 0011078 161.8418 198.2966 15.35940975  1859
STP-S29A OBJECT A       
1 68627U 26074A   26106.18786372  .00005361  00000+0  23561-3 0  9999
2 68627  60.0194  56.0249 0016377 315.0055  44.9697 15.23223284  1338
STP-S29A OBJECT B       
1 68628U 26074B   26106.25287035  .00004260  00000+0  18924-3 0  9994
2 68628  60.0241  55.7814 0014809 318.1246  41.8700 15.23322470  1338
